{
  "type": "FeatureCollection",
  "features": [
    {
      "type": "Feature",
      "properties": {
        "norad_id": 35022,
        "name": "COSMOS 2251 DEB",
        "group": "cosmos-2251-debris",
        "lat": 24.350340478233544,
        "lon": -26.175599063562146,
        "alt_km": 715.5364171925221,
        "timestamp": "2025-12-10T09:57:45.093702+00:00",
        "meta_object_name": "COSMOS 2251 DEB",
        "meta_object_id": "1993-036AGK",
        "meta_epoch": "2025-12-08T16:45:20.077056",
        "meta_mean_motion": 14.60807192,
        "meta_eccentricity": 0.0046993,
        "meta_inclination": 74.0257,
        "meta_ra_of_asc_node": 329.6569,
        "meta_arg_of_pericenter": 170.8022,
        "meta_mean_anomaly": 189.4016,
        "meta_ephemeris_type": 0,
        "meta_classification_type": "U",
        "meta_norad_cat_id": 35022,
        "meta_element_set_no": 999,
        "meta_rev_at_epoch": 59084,
        "meta_bstar": 0.00059202,
        "meta_mean_motion_dot": 2.907e-05,
        "meta_mean_motion_ddot": 0,
        "tle_line1": "1 35022U 93036AGK 25342.69814904  .00002907  00000+0  59202-3 0  9998",
        "tle_line2": "2 35022  74.0257 329.6569 0046993 170.8022 189.4016 14.60807192590843"
      },
      "geometry": {
        "type": "Point",
        "coordinates": [
          -26.175599063562146,
          24.350340478233544
        ]
      }
    },
    {
      "type": "Feature",
      "properties": {
        "norad_id": 35023,
        "name": "COSMOS 2251 DEB",
        "group": "cosmos-2251-debris",
        "lat": -73.45435834201413,
        "lon": 142.8030217286297,
        "alt_km": 567.2559397990153,
        "timestamp": "2025-12-10T09:57:45.093712+00:00",
        "meta_object_name": "COSMOS 2251 DEB",
        "meta_object_id": "1993-036AGL",
        "meta_epoch": "2025-12-09T20:26:49.814016",
        "meta_mean_motion": 14.94951153,
        "meta_eccentricity": 0.0034088,
        "meta_inclination": 74.0373,
        "meta_ra_of_asc_node": 218.4096,
        "meta_arg_of_pericenter": 296.79,
        "meta_mean_anomaly": 188.2732,
        "meta_ephemeris_type": 0,
        "meta_classification_type": "U",
        "meta_norad_cat_id": 35023,
        "meta_element_set_no": 999,
        "meta_rev_at_epoch": 88236,
        "meta_bstar": 0.0020903,
        "meta_mean_motion_dot": 0.00023135,
        "meta_mean_motion_ddot": 0,
        "tle_line1": "1 35023U 93036AGL 25343.85196544  .00023135  00000+0  20903-2 0  9992",
        "tle_line2": "2 35023  74.0373 218.4096 0034088 296.7900 188.2732 14.94951153882365"
      },
      "geometry": {
        "type": "Point",
        "coordinates": [
          142.8030217286297,
          -73.45435834201413
        ]
      }
    },
    {
      "type": "Feature",
      "properties": {
        "norad_id": 35025,
        "name": "COSMOS 2251 DEB",
        "group": "cosmos-2251-debris",
        "lat": 3.91924256010234,
        "lon": -113.64812357287308,
        "alt_km": 712.3142080367152,
        "timestamp": "2025-12-10T09:57:45.093723+00:00",
        "meta_object_name": "COSMOS 2251 DEB",
        "meta_object_id": "1993-036AGN",
        "meta_epoch": "2025-12-08T22:55:37.574400",
        "meta_mean_motion": 14.72677529,
        "meta_eccentricity": 0.0084992,
        "meta_inclination": 73.9387,
        "meta_ra_of_asc_node": 70.3412,
        "meta_arg_of_pericenter": 343.9938,
        "meta_mean_anomaly": 15.8549,
        "meta_ephemeris_type": 0,
        "meta_classification_type": "U",
        "meta_norad_cat_id": 35025,
        "meta_element_set_no": 999,
        "meta_rev_at_epoch": 88587,
        "meta_bstar": 0.00047908,
        "meta_mean_motion_dot": 3.199e-05,
        "meta_mean_motion_ddot": 0,
        "tle_line1": "1 35025U 93036AGN 25342.95529600  .00003199  00000+0  47908-3 0  9990",
        "tle_line2": "2 35025  73.9387  70.3412 0084992 343.9938  15.8549 14.72677529885870"
      },
      "geometry": {
        "type": "Point",
        "coordinates": [
          -113.64812357287308,
          3.91924256010234
        ]
      }
    },
    {
      "type": "Feature",
      "properties": {
        "norad_id": 35026,
        "name": "COSMOS 2251 DEB",
        "group": "cosmos-2251-debris",
        "lat": -25.51133501267601,
        "lon": 151.03715648024865,
        "alt_km": 755.7101300851455,
        "timestamp": "2025-12-10T09:57:45.093733+00:00",
        "meta_object_name": "COSMOS 2251 DEB",
        "meta_object_id": "1993-036AGP",
        "meta_epoch": "2025-12-09T17:19:11.850816",
        "meta_mean_motion": 14.53620559,
        "meta_eccentricity": 0.0082285,
        "meta_inclination": 74.0465,
        "meta_ra_of_asc_node": 324.4997,
        "meta_arg_of_pericenter": 78.8083,
        "meta_mean_anomaly": 99.6497,
        "meta_ephemeris_type": 0,
        "meta_classification_type": "U",
        "meta_norad_cat_id": 35026,
        "meta_element_set_no": 999,
        "meta_rev_at_epoch": 88099,
        "meta_bstar": 0.00012249,
        "meta_mean_motion_dot": 5.06e-06,
        "meta_mean_motion_ddot": 0,
        "tle_line1": "1 35026U 93036AGP 25343.72166494  .00000506  00000+0  12249-3 0  9994",
        "tle_line2": "2 35026  74.0465 324.4997 0082285  78.8083  99.6497 14.53620559880999"
      },
      "geometry": {
        "type": "Point",
        "coordinates": [
          151.03715648024865,
          -25.51133501267601
        ]
      }
    },
    {
      "type": "Feature",
      "properties": {
        "norad_id": 35028,
        "name": "COSMOS 2251 DEB",
        "group": "cosmos-2251-debris",
        "lat": -62.39019376426009,
        "lon": -117.78460251695141,
        "alt_km": 737.1317022091343,
        "timestamp": "2025-12-10T09:57:45.093743+00:00",
        "meta_object_name": "COSMOS 2251 DEB",
        "meta_object_id": "1993-036AGR",
        "meta_epoch": "2025-12-06T14:45:20.784960",
        "meta_mean_motion": 14.56559763,
        "meta_eccentricity": 0.00822588,
        "meta_inclination": 74.0381,
        "meta_ra_of_asc_node": 282.6027,
        "meta_arg_of_pericenter": 57.9846,
        "meta_mean_anomaly": 116.6366,
        "meta_ephemeris_type": 0,
        "meta_classification_type": "U",
        "meta_norad_cat_id": 35028,
        "meta_element_set_no": 999,
        "meta_rev_at_epoch": 88196,
        "meta_bstar": 0.00020909724,
        "meta_mean_motion_dot": 9.44e-06,
        "meta_mean_motion_ddot": 0,
        "tle_line1": "1 35028U 93036AGR 25340.61482390  .00000944  00000+0  20910-3 0  9997",
        "tle_line2": "2 35028  74.0381 282.6027 0082258  57.9846 116.6366 14.56559763881966"
      },
      "geometry": {
        "type": "Point",
        "coordinates": [
          -117.78460251695141,
          -62.39019376426009
        ]
      }
    },
    {
      "type": "Feature",
      "properties": {
        "norad_id": 35031,
        "name": "COSMOS 2251 DEB",
        "group": "cosmos-2251-debris",
        "lat": -2.2043826106995454,
        "lon": -97.08475177571216,
        "alt_km": 753.7089692711224,
        "timestamp": "2025-12-10T09:57:45.093752+00:00",
        "meta_object_name": "COSMOS 2251 DEB",
        "meta_object_id": "1993-036AGU",
        "meta_epoch": "2025-12-08T11:13:55.739136",
        "meta_mean_motion": 14.3828637,
        "meta_eccentricity": 0.00186752,
        "meta_inclination": 74.0383,
        "meta_ra_of_asc_node": 267.1323,
        "meta_arg_of_pericenter": 1.498,
        "meta_mean_anomaly": 358.6226,
        "meta_ephemeris_type": 0,
        "meta_classification_type": "U",
        "meta_norad_cat_id": 35031,
        "meta_element_set_no": 999,
        "meta_rev_at_epoch": 65222,
        "meta_bstar": 0.00036337037,
        "meta_mean_motion_dot": 1.081e-05,
        "meta_mean_motion_ddot": 0,
        "tle_line1": "1 35031U 93036AGU 25342.46800624  .00001081  00000+0  36337-3 0  9993",
        "tle_line2": "2 35031  74.0383 267.1323 0018675   1.4980 358.6226 14.38286370652223"
      },
      "geometry": {
        "type": "Point",
        "coordinates": [
          -97.08475177571216,
          -2.2043826106995454
        ]
      }
    },
    {
      "type": "Feature",
      "properties": {
        "norad_id": 35032,
        "name": "COSMOS 2251 DEB",
        "group": "cosmos-2251-debris",
        "lat": 49.41220778077683,
        "lon": 31.521706376182777,
        "alt_km": 740.4785776235613,
        "timestamp": "2025-12-10T09:57:45.093763+00:00",
        "meta_object_name": "COSMOS 2251 DEB",
        "meta_object_id": "1993-036AGV",
        "meta_epoch": "2025-12-09T19:42:25.104096",
        "meta_mean_motion": 14.58685384,
        "meta_eccentricity": 0.0068562,
        "meta_inclination": 73.8521,
        "meta_ra_of_asc_node": 12.8989,
        "meta_arg_of_pericenter": 224.7091,
        "meta_mean_anomaly": 309.8234,
        "meta_ephemeris_type": 0,
        "meta_classification_type": "U",
        "meta_norad_cat_id": 35032,
        "meta_element_set_no": 999,
        "meta_rev_at_epoch": 87631,
        "meta_bstar": 0.0014196,
        "meta_mean_motion_dot": 6.813e-05,
        "meta_mean_motion_ddot": 0,
        "tle_line1": "1 35032U 93036AGV 25343.82112389  .00006813  00000+0  14196-2 0  9995",
        "tle_line2": "2 35032  73.8521  12.8989 0068562 224.7091 309.8234 14.58685384876316"
      },
      "geometry": {
        "type": "Point",
        "coordinates": [
          31.521706376182777,
          49.41220778077683
        ]
      }
    }
  ]
}